NUSAT-50 (NANCY ROMAN)  
1 60493U 24149AB  26068.80227738  .00012094  00000+0  42252-3 0  9994
2 60493  97.3817 150.7693 0002523 238.0469 122.0527 15.29713355 86930
STARLINK-36092          
1 66869U 25281X   26068.17067163  .00027117  00000+0  99106-3 0  9991
2 66869  43.0018 346.6220 0001183 269.2480  90.8236 15.27588836 16097
